FALCON 9 DEB            
1 53642U 22104BG  22255.16770373  .01660543  11755-4  84603-3 0  9991
2 53642  53.2163 211.3325 0041631 102.5286 258.0415 16.17559076  2428
FALCON 9 DEB            
1 53643U 22104BH  22255.16434448  .01658373  11753-4  86296-3 0  9998
2 53643  53.2102 211.3027 0039955 102.4313 258.1201 16.17469476  2425
FALCON 9 DEB            
1 53644U 22104BJ  22254.90597849  .01423306  11775-4  71560-3 0  9993
2 53644  53.2156 212.5250 0038818  94.4635 266.0841 16.18017200  2388
FALCON 9 DEB            
1 53645U 22104BK  22255.14941466  .01689725  11827-4  73334-3 0  9997
2 53645  53.2161 211.1918 0035725  95.9318 264.5796 16.20113566  2421
STARLINK-4622           
1 53648U 22105A   22255.25001157 -.00100926  00000+0 -83939-3 0  9997
2 53648  97.6564 133.3054 0001815 121.6100 111.2467 15.70345778  2180
STARLINK-4386           
1 53649U 22105B   22255.25001157  .00006026  00000+0  50764-4 0  9993
2 53649  97.6570 133.3047 0001790 128.5167 104.9618 15.70283064  2176
STARLINK-4380           
1 53650U 22105C   22255.25001157 -.00001267  00000+0 -93682-5 0  9996
2 53650  97.6557 133.2913 0001637 116.8994 117.0625 15.70278095  2173
STARLINK-4388           
1 53651U 22105D   22254.91667824 -.00011345  00000+0 -92643-4 0  9991
2 53651  97.6550 132.9396 0001711 130.8218  20.7508 15.70280511  1306
STARLINK-4374           
1 53652U 22105E   22254.91667824  .00051889  00000+0  42657-3 0  9996
2 53652  97.6550 132.9400 0001451 133.0959  18.8828 15.70281835  1304
STARLINK-4390           
1 53653U 22105F   22255.25001157 -.00097807  00000+0 -81322-3 0  9990
2 53653  97.6553 133.3052 0001967 123.0488 112.7527 15.70342275  2176
STARLINK-4420           
1 53654U 22105G   22255.25001157 -.00099214  00000+0 -82499-3 0  9991
2 53654  97.6554 133.3073 0001708 136.0641 101.5451 15.70345581  2174
STARLINK-4470           
1 53655U 22105H   22255.25001157 -.00026483  00000+0 -21796-3 0  9993
2 53655  97.6560 133.3062 0001795 126.0093 110.4175 15.70297170  2178
STARLINK-4466           
1 53656U 22105J   22254.91667824 -.00088020  00000+0 -73132-3 0  9991
2 53656  97.6551 132.9432 0001671 128.0350  27.6677 15.70328978  1307
STARLINK-4469           
1 53657U 22105K   22255.25001157 -.00098017  00000+0 -81471-3 0  9993
2 53657  97.6561 133.3068 0001963 124.4534 112.5464 15.70350352  2172
STARLINK-4452           
1 53658U 22105L   22254.91667824 -.00058592  00000+0 -48463-3 0  9993
2 53658  97.6552 132.9428 0001789 125.4591  30.7490 15.70334894  1305
STARLINK-4463           
1 53659U 22105M   22254.91667824 -.00094640  00000+0 -78738-3 0  9996
2 53659  97.6547 132.9427 0001790 127.8966  27.2257 15.70317535  1308
STARLINK-4473           
1 53660U 22105N   22255.25001157 -.00020022  00000+0 -16437-3 0  9998
2 53660  97.6566 133.3095 0001895 134.0471 107.1424 15.70300440  2171
STARLINK-4472           
1 53661U 22105P   22255.25001157 -.00069576  00000+0 -57627-3 0  9992
2 53661  97.6563 133.3084 0001768 125.4443 114.5126 15.70341810  2176
STARLINK-4357           
1 53662U 22105Q   22255.25001157  .00005745  00000+0  48504-4 0  9994
2 53662  97.6562 133.3112 0001922 134.1412 108.8660 15.70257781  2175
STARLINK-4457           
1 53663U 22105R   22255.25001157 -.00070427  00000+0 -58327-3 0  9999
2 53663  97.6563 133.3089 0001774 129.4817 111.0674 15.70346999  2172
STARLINK-4471           
1 53664U 22105S   22255.25001157 -.00008171  00000+0 -66347-4 0  9999
2 53664  97.6551 133.3111 0001735 126.5141 117.0446 15.70298816  2178
STARLINK-4334           
1 53665U 22105T   22254.91667824 -.00079140  00000+0 -65645-3 0  9994
2 53665  97.6549 132.9435 0001729 128.0845  30.5569 15.70339399  2123
STARLINK-4449           
1 53666U 22105U   22255.25001157  .00005153  00000+0  43567-4 0  9995
2 53666  97.6559 133.3116 0001981 130.1389 114.6303 15.70287696  2170
STARLINK-4406           
1 53667U 22105V   22255.25001157 -.00061888  00000+0 -51189-3 0  9993
2 53667  97.6553 133.3093 0001868 132.3492 109.9419 15.70347213  2179
STARLINK-4458           
1 53668U 22105W   22255.25001157  .00004314  00000+0  36683-4 0  9996
2 53668  97.6553 133.3125 0002107 123.8707 121.4814 15.70267699  2174
STARLINK-4464           
1 53669U 22105X   22255.25001157 -.00019395  00000+0 -15897-3 0  9997
2 53669  97.6567 133.3112 0001850 130.9789 113.0917 15.70331760  2171
STARLINK-4459           
1 53670U 22105Y   22255.25001157  .00003235  00000+0  27764-4 0  9990
2 53670  97.6550 133.3132 0002176 128.9897 117.5041 15.70288242  2179
STARLINK-4440           
1 53671U 22105Z   22255.25001157  .00004034  00000+0  34349-4 0  9996
2 53671  97.6552 133.3123 0002260 127.9721 117.9418 15.70285194  2176
STARLINK-4428           
1 53672U 22105AA  22255.25001157 -.00012459  00000+0 -10178-3 0  9992
2 53672  97.6561 133.3146 0001759 127.6909 120.6558 15.70300847  2178
STARLINK-4456           
1 53673U 22105AB  22254.91667824  .00009432  00000+0  78812-4 0  9999
2 53673  97.6563 132.9476 0001815 141.4791  22.5490 15.70283776  1308
STARLINK-4620           
1 53674U 22105AC  22255.25001157  .00360921  00000+0  28816-2 0  9999
2 53674  97.6555 133.3021 0001690 127.8839 121.7033 15.70038024  2178
STARLINK-4617           
1 53675U 22105AD  22254.91667824 -.00060722  00000+0 -50270-3 0  9999
2 53675  97.6553 132.9467 0002147 135.3210  29.2833 15.70320076  2127
STARLINK-4621           
1 53676U 22105AE  22255.25001157 -.00020600  00000+0 -16905-3 0  9997
2 53676  97.6562 133.3159 0002140 135.1252 115.5577 15.70314034  2174
STARLINK-4579           
1 53677U 22105AF  22254.91667824 -.00022956  00000+0 -18869-3 0  9996
2 53677  97.6553 132.9480 0001678 122.1895  43.6578 15.70299915  1307
STARLINK-4418           
1 53678U 22105AG  22254.91667824  .00123783  00000+0  10108-2 0  9992
2 53678  97.6554 132.9371 0001744 122.3933  46.3940 15.70200365  2122
STARLINK-4632           
1 53679U 22105AH  22255.25001157 -.00023807  00000+0 -19582-3 0  9996
2 53679  97.6565 133.3144 0002065 128.0188 122.1661 15.70288934  2176
STARLINK-4630           
1 53680U 22105AJ  22254.91667824 -.00043700  00000+0 -36096-3 0  9992
2 53680  97.6560 132.9516 0001545 122.1131  47.8574 15.70307337  2126
STARLINK-4424           
1 53681U 22105AK  22255.25001157 -.00093760  00000+0 -77896-3 0  9996
2 53681  97.6555 133.3148 0002212 129.9826 121.3092 15.70347349  2170
STARLINK-4438           
1 53682U 22105AL  22255.25001157 -.00055569  00000+0 -45947-3 0  9994
2 53682  97.6563 133.3172 0001704 126.0480 128.2051 15.70331756  2172
STARLINK-4625           
1 53683U 22105AM  22255.25001157 -.00023572  00000+0 -19369-3 0  9993
2 53683  97.6567 133.3161 0001839 126.9022 125.5759 15.70312095  2175
STARLINK-4624           
1 53684U 22105AN  22255.25001157 -.00049641  00000+0 -41067-3 0  9999
2 53684  97.6567 133.3606 0001765 114.6720 229.4552 15.70295281  2179
STARLINK-4626           
1 53685U 22105AP  22254.91667824  .00025551  00000+0  21117-3 0  9997
2 53685  97.6562 132.9511 0001580 125.7167  44.7927 15.70292316  2123
STARLINK-4467           
1 53686U 22105AQ  22254.91667824  .00007175  00000+0  60196-4 0  9991
2 53686  97.6556 132.9528 0001507 111.3390  60.9587 15.70296472  2122
STARLINK-4569           
1 53687U 22105AR  22254.91667824  .00043217  00000+0  35751-3 0  9997
2 53687  97.6558 132.9516 0001642 145.2222  26.8631 15.70167586  1305
STARLINK-4571           
1 53688U 22105AS  22255.25001157 -.00063910  00000+0 -52941-3 0  9991
2 53688  97.6560 133.3189 0001829 117.5220 139.1575 15.70318156  2179
STARLINK-4562           
1 53689U 22105AT  22255.25001157  .00001606  00000+0  14341-4 0  9997
2 53689  97.6567 133.3180 0001660 120.2088 135.8901 15.70274020  2171
STARLINK-4570           
1 53690U 22105AU  22255.25001157 -.00012357  00000+0 -10090-3 0  9992
2 53690  97.6568 133.3199 0001767 124.2671 133.5926 15.70309610  2170
STARLINK-4560           
1 53691U 22105AV  22255.25001157 -.00093295  00000+0 -77466-3 0  9993
2 53691  97.6563 133.3178 0001459 126.7401 130.4521 15.70362034  2175
STARLINK-4572           
1 53692U 22105AW  22255.25001157 -.00065299  00000+0 -54096-3 0  9991
2 53692  97.6555 133.3204 0001934 128.4379 130.0735 15.70320879  2172
STARLINK-4566           
1 53693U 22105AX  22255.25001157 -.00011713  00000+0 -95595-4 0  9994
2 53693  97.6566 133.3189 0001783 124.3165 134.7436 15.70304746  2171
FALCON 9 DEB            
1 53694U 22105AY  22255.13179135  .00192983  15577-4  68630-3 0  9990
2 53694  97.6726 133.3971 0009694 220.2525 139.8030 15.88874399  1893
FALCON 9 DEB            
1 53695U 22105AZ  22254.75119188  .00174602  13200-4  61219-3 0  9995
2 53695  97.6706 132.9722 0007930 207.2230 152.8627 15.89193722  1836
FALCON 9 DEB            
1 53696U 22105BA  22254.74325510  .00182390  14380-4  59720-3 0  9990
2 53696  97.6675 132.9773 0012791 202.3777 157.6939 15.90460800  1836
FALCON 9 DEB            
1 53697U 22105BB  22254.74108331  .00184142  14652-4  59541-3 0  9991
2 53697  97.6661 132.9781 0011913 190.2612 169.8419 15.90726783  1832
YAOGAN-33 02            
1 53698U 22106A   22254.99522380  .00000113  00000+0  31434-4 0  9998
2 53698  98.1876 261.0419 0005889 216.2143 143.8640 14.62864250  1324
CZ-4C R/B               
1 53699U 22106B   22254.95739708  .00001974  00000+0  16716-3 0  9990
2 53699  98.2016 261.4567 0145209  22.1662 338.5751 14.91475071  1339
CENTISPACE-1 S3         
1 53757U 22108A   22254.97420976  .00000325  00000+0  10948-3 0  9993
2 53757  53.5344 322.4775 0008686 294.3466  65.6616 14.58242475   850
CENTISPACE-1 S4         
1 53758U 22108B   22254.97637099  .00000647  00000+0  18054-3 0  9993
2 53758  53.5315 322.4873 0008444 278.0922  81.9101 14.57706632   855
KZ-1A R/B               
1 53759U 22108C   22254.63538527  .00424030  98860-5  72483-3 0  9992
2 53759  53.5620 321.1422 0396474  95.9498 268.6931 15.32389428   846
